NORAD_CAT_ID,OBJECT_NAME,OBJECT_TYPE,EPOCH,MEAN_MOTION,ECCENTRICITY,INCLINATION,RA_OF_ASC_NODE,ARG_OF_PERICENTER,MEAN_ANOMALY,BSTAR,MEAN_MOTION_DOT,MEAN_MOTION_DDOT,TLE_LINE0,TLE_LINE1,TLE_LINE2,SEMIMAJOR_AXIS,PERIOD,APOGEE,PERIGEE,DECAYED
54008.0,STARLINK-5145,PAYLOAD,2024-06-08 09:04:09,15.08844284,0.000108,53.2155,193.7421,97.8991,262.2123,0.0001254,1.709e-05,0.0,0 STARLINK-5145,1 54008U 22125AW  24160.37788500  .00001709  00000-0  12540-3 0  9992,2 54008  53.2155 193.7421 0001080  97.8991 262.2123 15.08844284 93148,6917.867,95.437,540.479,538.985,0.0
54008.0,STARLINK-5145,PAYLOAD,2024-06-08 13:50:18,15.08848098,0.0001107,53.2159,192.85,98.8596,261.2522,0.00015131,2.122e-05,0.0,0 STARLINK-5145,1 54008U 22125AW  24160.57660146  .00002122  00000-0  15131-3 0  9998,2 54008  53.2159 192.8500 0001107  98.8596 261.2522 15.08848098 93129,6917.856,95.437,540.486,538.955,0.0
54008.0,STARLINK-5145,PAYLOAD,2024-06-09 12:05:43,15.08833758,0.0001132,53.2163,188.6874,94.778,265.3342,-1.0332e-05,-4.52e-06,0.0,0 STARLINK-5145,1 54008U 22125AW  24161.50397769 -.00000452  00000-0 -10332-4 0  9995,2 54008  53.2163 188.6874 0001132  94.7780 265.3342 15.08833758 93312,6917.899,95.438,540.548,538.981,0.0
54008.0,STARLINK-5145,PAYLOAD,2024-06-09 18:27:16,15.08836831,0.0001136,53.2167,187.4987,89.4321,270.6802,9.0426e-06,-1.44e-06,0.0,0 STARLINK-5145,1 54008U 22125AW  24161.76893609 -.00000144  00000-0  90426-5 0  9997,2 54008  53.2167 187.4987 0001136  89.4321 270.6802 15.08836831 93308,6917.89,95.438,540.541,538.969,0.0
54008.0,STARLINK-5145,PAYLOAD,2024-06-10 08:45:44,15.08842337,0.0001107,53.2165,184.8231,101.7498,258.3618,2.318e-05,8.1e-07,0.0,0 STARLINK-5145,1 54008U 22125AW  24162.36509391  .00000081  00000-0  23180-4 0  9997,2 54008  53.2165 184.8231 0001107 101.7498 258.3618 15.08842337 93441,6917.873,95.437,540.504,538.972,0.0
54008.0,STARLINK-5145,PAYLOAD,2024-06-10 18:18:02,15.08842668,0.0001107,53.2165,183.0389,100.8745,259.2372,4.1619e-05,3.75e-06,0.0,0 STARLINK-5145,1 54008U 22125AW  24162.76253348  .00000375  00000-0  41619-4 0  9992,2 54008  53.2165 183.0389 0001107 100.8745 259.2372 15.08842668 93456,6917.872,95.437,540.503,538.971,0.0
54008.0,STARLINK-5145,PAYLOAD,2024-06-11 08:36:31,15.0884079,0.0001078,53.216,180.3625,84.0745,276.037,0.00017283,2.464e-05,0.0,0 STARLINK-5145,1 54008U 22125AW  24163.35869489  .00002464  00000-0  17283-3 0  9997,2 54008  53.2160 180.3625 0001078  84.0745 276.0370 15.08840790 93543,6917.878,95.438,540.489,538.997,0.0
54008.0,STARLINK-5145,PAYLOAD,2024-06-12 05:16:32,15.08835732,0.0001151,53.2164,176.4973,87.3302,272.7822,6.2534e-05,7.07e-06,0.0,0 STARLINK-5145,1 54008U 22125AW  24164.21982207  .00000707  00000-0  62534-4 0  9995,2 54008  53.2164 176.4973 0001151  87.3302 272.7822 15.08835732 93721,6917.893,95.438,540.555,538.962,0.0
54008.0,STARLINK-5145,PAYLOAD,2024-06-12 06:51:55,15.08836413,0.0001146,53.2163,176.1997,86.9658,273.1465,5.2273e-05,5.44e-06,0.0,0 STARLINK-5145,1 54008U 22125AW  24164.28606179  .00000544  00000-0  52273-4 0  9991,2 54008  53.2163 176.1997 0001146  86.9658 273.1465 15.08836413 93686,6917.891,95.438,540.549,538.964,0.0
54008.0,STARLINK-5145,PAYLOAD,2024-06-12 17:59:37,15.08838871,0.0001152,53.2164,174.1182,85.8723,274.2401,6.1291e-05,6.88e-06,0.0,0 STARLINK-5145,1 54008U 22125AW  24164.74973995  .00000688  00000-0  61291-4 0  9994,2 54008  53.2164 174.1182 0001152  85.8723 274.2401 15.08838871 93759,6917.884,95.438,540.546,538.952,0.0
54008.0,STARLINK-5145,PAYLOAD,2024-06-13 06:42:42,15.08844049,0.0001128,53.216,171.7389,86.5759,273.5362,6.8294e-05,7.99e-06,0.0,0 STARLINK-5145,1 54008U 22125AW  24165.27965580  .00000799  00000-0  68294-4 0  9997,2 54008  53.2160 171.7389 0001128  86.5759 273.5362 15.08844049 93883,6917.868,95.437,540.513,538.953,0.0
54008.0,STARLINK-5145,PAYLOAD,2024-06-14 06:33:29,15.08840802,0.0001054,53.2158,167.2779,87.9632,272.148,0.00011935,1.612e-05,0.0,0 STARLINK-5145,1 54008U 22125AW  24166.27325590  .00001612  00000-0  11935-3 0  9993,2 54008  53.2158 167.2779 0001054  87.9632 272.1480 15.08840802 93986,6917.878,95.438,540.472,539.014,0.0
54008.0,STARLINK-5145,PAYLOAD,2024-06-14 17:41:11,15.08842665,0.0001027,53.2158,165.1961,88.1006,272.0103,8.8856e-05,1.127e-05,0.0,0 STARLINK-5145,1 54008U 22125AW  24166.73693504  .00001127  00000-0  88856-4 0  9995,2 54008  53.2158 165.1961 0001027  88.1006 272.0103 15.08842665 94053,6917.872,95.437,540.448,539.027,0.0
54008.0,STARLINK-5145,PAYLOAD,2024-06-15 06:24:16,15.08842267,0.0001159,53.2168,162.8175,93.3602,266.7523,4.3051e-05,3.97e-06,0.0,0 STARLINK-5145,1 54008U 22125AW  24167.26685597  .00000397  00000-0  43051-4 0  9993,2 54008  53.2168 162.8175 0001159  93.3602 266.7523 15.08842267 94134,6917.873,95.437,540.54,538.937,0.0
54008.0,STARLINK-5145,PAYLOAD,2024-06-16 06:15:03,15.08839924,0.0001143,53.2165,158.3574,91.4448,268.6675,3.8453e-05,3.24e-06,0.0,0 STARLINK-5145,1 54008U 22125AW  24168.26045728  .00000324  00000-0  38453-4 0  9990,2 54008  53.2165 158.3574 0001143  91.4448 268.6675 15.08839924 94285,6917.881,95.438,540.536,538.955,0.0
54008.0,STARLINK-5145,PAYLOAD,2024-06-16 15:47:22,15.08838035,0.000115,53.2164,156.5733,90.7067,269.4057,2.0152e-05,3.3e-07,0.0,0 STARLINK-5145,1 54008U 22125AW  24168.65789926  .00000033  00000-0  20152-4 0  9992,2 54008  53.2164 156.5733 0001150  90.7067 269.4057 15.08838035 94340,6917.886,95.438,540.547,538.956,0.0
54008.0,STARLINK-5145,PAYLOAD,2024-06-17 15:38:09,15.0883612,0.0001123,53.2162,152.1122,87.6231,272.4889,4.0816e-05,3.62e-06,0.0,0 STARLINK-5145,1 54008U 22125AW  24169.65150096  .00000362  00000-0  40816-4 0  9997,2 54008  53.2162 152.1122 0001123  87.6231 272.4889 15.08836120 94496,6917.892,95.438,540.534,538.98,0.0
54008.0,STARLINK-5145,PAYLOAD,2024-06-18 02:45:52,15.08832252,0.0001192,53.2166,150.0309,88.2798,271.833,2.1426e-06,-2.54e-06,0.0,0 STARLINK-5145,1 54008U 22125AW  24170.11518651 -.00000254  00000-0  21426-5 0  9993,2 54008  53.2166 150.0309 0001192  88.2798 271.8330 15.08832252 94615,6917.904,95.438,540.594,538.944,0.0
54008.0,STARLINK-5145,PAYLOAD,2024-06-18 09:07:24,15.08835133,0.0001201,53.2167,148.8416,88.0431,272.0698,2.3484e-05,8.6e-07,0.0,0 STARLINK-5145,1 54008U 22125AW  24170.38014481  .00000086  00000-0  23484-4 0  9991,2 54008  53.2167 148.8416 0001201  88.0431 272.0698 15.08835133 94603,6917.895,95.438,540.591,538.929,0.0
54008.0,STARLINK-5145,PAYLOAD,2024-06-18 15:28:57,15.08835741,0.0001215,53.2169,147.6523,87.6353,272.4779,3.7557e-05,3.1e-06,0.0,0 STARLINK-5145,1 54008U 22125AW  24170.64510457  .00000310  00000-0  37557-4 0  9990,2 54008  53.2169 147.6523 0001215  87.6353 272.4779 15.08835741 94647,6917.893,95.438,540.599,538.918,0.0
54008.0,STARLINK-5145,PAYLOAD,2024-06-19 04:12:01,15.08840582,0.0001206,53.2166,145.2732,88.9113,271.2017,7.051e-05,8.35e-06,0.0,0 STARLINK-5145,1 54008U 22125AW  24171.17502115  .00000835  00000-0  70510-4 0  9999,2 54008  53.2166 145.2732 0001206  88.9113 271.2017 15.08840582 94773,6917.879,95.438,540.578,538.909,0.0
54008.0,STARLINK-5145,PAYLOAD,2024-06-19 07:22:47,15.0884308,0.0001236,53.217,144.6787,89.4184,270.695,9.0046e-05,1.146e-05,0.0,0 STARLINK-5145,1 54008U 22125AW  24171.30749900  .00001146  00000-0  90046-4 0  9991,2 54008  53.2170 144.6787 0001236  89.4184 270.6950 15.08843080 94740,6917.871,95.437,540.591,538.881,0.0
54008.0,STARLINK-5145,PAYLOAD,2024-06-19 15:19:43,15.0883902,0.0001251,53.2171,143.1915,81.8153,278.2981,4.6885e-05,4.58e-06,0.0,0 STARLINK-5145,1 54008U 22125AW  24171.63870291  .00000458  00000-0  46885-4 0  9992,2 54008  53.2171 143.1915 0001251  81.8153 278.2981 15.08839020 94799,6917.883,95.438,540.614,538.883,0.0
54008.0,STARLINK-5145,PAYLOAD,2024-06-20 04:02:49,15.08832554,0.0001276,53.2171,140.8128,81.6448,278.4689,3.2571e-05,2.3e-06,0.0,0 STARLINK-5145,1 54008U 22125AW  24172.16862884  .00000230  00000-0  32571-4 0  9995,2 54008  53.2171 140.8128 0001276  81.6448 278.4689 15.08832554 94928,6917.903,95.438,540.651,538.885,0.0
54008.0,STARLINK-5145,PAYLOAD,2024-06-20 21:32:03,15.08838462,0.0001285,53.2167,137.5409,82.5808,277.533,2.846e-05,1.65e-06,0.0,0 STARLINK-5145,1 54008U 22125AW  24172.89726677  .00000165  00000-0  28460-4 0  9993,2 54008  53.2167 137.5409 0001285  82.5808 277.5330 15.08838462 94981,6917.885,95.438,540.639,538.861,0.0
54008.0,STARLINK-5145,PAYLOAD,2024-06-21 03:53:36,15.08843965,0.0001344,53.2169,136.3532,81.041,279.0734,1.7088e-05,-1.6e-07,0.0,0 STARLINK-5145,1 54008U 22125AW  24173.16222376 -.00000016  00000-0  17088-4 0  9991,2 54008  53.2169 136.3532 0001344  81.0410 279.0734 15.08843965 95076,6917.868,95.437,540.663,538.804,0.0
54008.0,STARLINK-5145,PAYLOAD,2024-06-21 07:04:22,15.088469,0.0001313,53.2168,135.7577,81.6287,278.4854,4.0163e-05,3.51e-06,0.0,0 STARLINK-5145,1 54008U 22125AW  24173.29470060  .00000351  00000-0  40163-4 0  9991,2 54008  53.2168 135.7577 0001313  81.6287 278.4854 15.08846900 95046,6917.859,95.437,540.633,538.816,0.0
54008.0,STARLINK-5145,PAYLOAD,2024-06-22 03:44:23,15.0883247,0.0001723,53.2185,131.8916,103.2923,256.8261,-6.3892e-06,-3.9e-06,0.0,0 STARLINK-5145,1 54008U 22125AW  24174.15583280 -.00000390  00000-0 -63892-5 0  9996,2 54008  53.2185 131.8916 0001723 103.2923 256.8261 15.08832470 95221,6917.903,95.438,540.96,538.576,0.0
54008.0,STARLINK-5145,PAYLOAD,2024-06-22 06:55:10,15.08833866,0.0001682,53.2181,131.2962,103.1096,257.0084,7.5089e-06,-1.69e-06,0.0,0 STARLINK-5145,1 54008U 22125AW  24174.28831183 -.00000169  00000-0  75089-5 0  9992,2 54008  53.2181 131.2962 0001682 103.1096 257.0084 15.08833866 95198,6917.899,95.438,540.928,538.601,0.0
54008.0,STARLINK-5145,PAYLOAD,2024-06-23 03:35:10,15.08841052,0.0001635,53.2178,127.4304,105.9844,254.1328,2.8642e-05,1.68e-06,0.0,0 STARLINK-5145,1 54008U 22125AW  24175.14942793  .00000168  00000-0  28642-4 0  9998,2 54008  53.2178 127.4304 0001635 105.9844 254.1328 15.08841052 95375,6917.877,95.437,540.873,538.611,0.0
